{
"businesses": [
    {
        "name": "ABC Company",
        "address": "123 Main Street",
        "zip": "98661",
        "phone": "123-456-7890",
        "website": "www.example.com",
        "imageurl": "images/logo1.jpg",
        "membership": "Gold",
        "slogan": "Delivering excellence"
        },
        {
        "name": "XYZ Corporation",
        "address": "456 Elm Avenue",
        "zip": "98665",
        "phone": "987-654-3210",
        "website": "www.xyzcorp.com",
        "imageurl": "images/logo2.jpg",
        "membership": "Silver",
        "slogan": "Quality you can trust"
        },
        {
        "name": "123 Industries",
        "address": "789 Oak Road",
        "zip": "98661",
        "phone": "456-789-0123",
        "website": "www.123industries.com",
        "imageurl": "images/logo3.jpg",
        "membership": "Bronze",
        "slogan": "Innovation at its best"
        },
        {
        "name": "Acme Corporation",
        "address": "789 Maple Lane",
        "zip": "98662",
        "phone": "012-345-6789",
        "website": "www.acmecorp.com",
        "imageurl": "images/logo4.jpg",
        "membership": "Platinum",
        "slogan": "Your success, our priority"
        },
        {
        "name": "Global Solutions",
        "address": "567 Pine Street",
        "zip": "98667",
        "phone": "890-123-4567",
        "website": "www.globalsolutions.com",
        "imageurl": "images/logo5.jpg",
        "membership": "Gold",
        "slogan": "Empowering businesses worldwide"
        },
        {
        "name": "Innovate Tech",
        "address": "234 Cedar Avenue",
        "zip": "98666",
        "phone": "567-890-1234",
        "website": "www.innovatetech.com",
        "imageurl": "images/logo6.jpg",
        "membership": "Silver",
        "slogan": "Transforming industries through technology"
        },
        {
        "name": "Swift Services",
        "address": "890 Oak Street",
        "zip": "98661",
        "phone": "234-567-8901",
        "website": "www.swiftservices.com",
        "imageurl": "images/logo7.jpg",
        "membership": "Bronze",
        "slogan": "Reliable and efficient solutions"
        },
        {
        "name": "TechPro Solutions",
        "address": "345 Elm Road",
        "zip": "98664",
        "phone": "678-901-2345",
        "website": "www.techprosolutions.com",
        "imageurl": "images/logo8.jpg",
        "membership": "Platinum",
        "slogan": "Driving innovation forward"
        },
        {
        "name": "Superior Systems",
        "address": "567 Maple Avenue",
        "zip": "98663",
        "phone": "901-234-5678",
        "website": "www.superiorsystems.com",
        "imageurl": "images/logo9.jpg",
        "membership": "Gold",
        "slogan": "Excellence in every detail"
        },
        {
        "name": "Proactive Solutions",
        "address": "789 Pine Lane",
        "zip": "98668",
        "phone": "234-567-8901",
        "website": "www.proactivesolutions.com",
        "imageurl": "images/logo10.jpg",
        "membership": "Silver",
        "slogan": "Your success is our priority"
        }]
  }